STARLINK-35662          
1 66384U 25257E   25334.83336806  .00061535  00000+0  11069-2 0  9990
2 66384  53.1594 320.7633 0001617  91.8686 275.8805 15.49279037  4582
STARLINK-35659          
1 66385U 25257F   25334.83336806 -.02043221  00000+0 -41570-1 0  9996
2 66385  53.1594 320.7713 0001209 102.4470 261.4356 15.49079419  4583
STARLINK-35651          
1 66386U 25257G   25334.83336806  .00145532  00000+0  25845-2 0  9999
2 66386  53.1596 320.7592 0001493  94.5559 275.1381 15.49217613  4585
STARLINK-35661          
1 66387U 25257H   25334.83336806  .00151057  00000+0  26801-2 0  9992
2 66387  53.1596 320.7559 0001219 100.0846 271.5143 15.49221417  4580
STARLINK-35647          
1 66388U 25257J   25334.83336806  .00156727  00000+0  27786-2 0  9995
2 66388  53.1595 320.7517 0001277  96.2420 277.2768 15.49219307  4583
STARLINK-35694          
1 66389U 25257K   25334.83336806 -.00007279  00000+0 -12298-3 0  9998
2 66389  53.1595 320.7466 0001499  96.1888 279.2339 15.49297393  4587
STARLINK-35665          
1 66390U 25257L   25334.83336806  .00114325  00000+0  20393-2 0  9993
2 66390  53.1594 320.6751 0001647  93.0775 316.8702 15.49229892  4682
STARLINK-35656          
1 66391U 25257M   25334.83336806 -.02147503  00000+0 -55817-1 0  9990
2 66391  53.1584 320.4893 0002041  90.7272  47.6085 15.42182721  4687
STARLINK-35671          
1 66392U 25257N   25334.83336806  .00158391  00000+0  28077-2 0  9993
2 66392  53.1595 320.7395 0001294  96.9063 282.3682 15.49216627  4585
STARLINK-35652          
1 66393U 25257P   25334.83336806  .00013560  00000+0  25159-3 0  9991
2 66393  53.1595 320.7431 0001594  96.7904 280.5362 15.49292180  4585
STARLINK-35672          
1 66394U 25257Q   25334.83336806  .00130904  00000+0  23294-2 0  9991
2 66394  53.1595 320.7346 0001625  94.4984 286.6925 15.49224245  4588
STARLINK-35681          
1 66395U 25257R   25334.83336806  .00114489  00000+0  20419-2 0  9998
2 66395  53.1595 320.7312 0001675  96.1812 286.9195 15.49234047  4422
